*******************************************************************************
 Revised: June 21, 2016                 Mars                            499 / 4
 
 PHYSICAL DATA (updated 2019-Oct-29):
  Vol. mean radius (km) = 3389.92+-0.04   Density (g/cm^3)      =  3.933(5+-4)
  Mass x10^23 (kg)      =    6.4171       Flattening, f         =  1/169.779
  Volume (x10^10 km^3)  =   16.318        Equatorial radius (km)=  3396.19
  Sidereal rot. period  =   24.622962 hr  Sid. rot. rate, rad/s =  0.0000708822 
  Mean solar day (sol)  =   88775.24415 s Polar gravity m/s^2   =  3.758
  Core radius (km)      = ~1700           Equ. gravity  m/s^2   =  3.71
  Geometric Albedo      =    0.150                                              

  GM (km^3/s^2)         = 42828.375214    Mass ratio (Sun/Mars) = 3098703.59
  GM 1-sigma (km^3/s^2) = +- 0.00028      Mass of atmosphere, kg= ~ 2.5 x 10^16
  Mean temperature (K)  =  210            Atmos. pressure (bar) =    0.0056 
  Obliquity to orbit    =   25.19 deg     Max. angular diam.    =  17.9"
  Mean sidereal orb per =    1.88081578 y Visual mag. V(1,0)    =  -1.52
  Mean sidereal orb per =  686.98 d       Orbital speed,  km/s  =  24.13
  Hill's sphere rad. Rp =  319.8          Escape speed, km/s    =   5.027
                                 Perihelion  Aphelion    Mean
  Solar Constant (W/m^2)         717         493         589
  Maximum Planetary IR (W/m^2)   470         315         390
  Minimum Planetary IR (W/m^2)    30          30          30
*******************************************************************************
 
 
*******************************************************************************
Ephemeris / WWW_USER Wed Jun 17 12:17:51 2020 Pasadena, USA      / Horizons
*******************************************************************************
Target body name: Mars (499)                      {source: mar097}
Center body name: Solar System Barycenter (0)     {source: DE431mx}
Center-site name: BODY CENTER
*******************************************************************************
Start time      : A.D. 2000-Jun-05 00:00:00.0000 TDB
Stop  time      : A.D. 2040-May-26 00:00:00.0000 TDB
Step-size       : 14400 minutes
*******************************************************************************
Center geodetic : 0.00000000,0.00000000,0.0000000 {E-lon(deg),Lat(deg),Alt(km)}
Center cylindric: 0.00000000,0.00000000,0.0000000 {E-lon(deg),Dxy(km),Dz(km)}
Center radii    : (undefined)                                                  
Output units    : AU-D
Output type     : GEOMETRIC cartesian states
Output format   : 3 (position, velocity, LT, range, range-rate)
Reference frame : Ecliptic of J2000.0
*******************************************************************************
JDTDB
   X     Y     Z
   VX    VY    VZ
   LT    RG    RR
*******************************************************************************
$$SOE
2454690.500000000 = A.D. 2008-Aug-12 00:00:00.0000 TDB 
 X =-1.560281994947114E+00 Y =-4.566024138230600E-01 Z = 2.857481324364694E-02
 VX= 4.487711352664492E-03 VY=-1.222457624229735E-02 VZ=-3.663449141298941E-04
 LT= 9.390826196328212E-03 RG= 1.625971152270882E+00 RR=-8.799617615545604E-04
2454700.500000000 = A.D. 2008-Aug-22 00:00:00.0000 TDB 
 X =-1.510066474914252E+00 Y =-5.771118295393957E-01 Z = 2.481664690167195E-02
 VX= 5.552485871692410E-03 VY=-1.186238371247698E-02 VZ=-3.849042800721101E-04
 LT= 9.337737383912309E-03 RG= 1.616779109346019E+00 RR=-9.576155610444408E-04
2454710.500000000 = A.D. 2008-Sep-01 00:00:00.0000 TDB 
 X =-1.449301669983451E+00 Y =-6.935503246104908E-01 Z = 2.088471303390703E-02
 VX= 6.596428336488915E-03 VY=-1.141027305535322E-02 VZ=-4.010679254092155E-04
 LT= 9.280313691726981E-03 RG= 1.606836505255792E+00 RR=-1.029969263008993E-03
2454720.500000000 = A.D. 2008-Sep-11 00:00:00.0000 TDB 
 X =-1.378230830920691E+00 Y =-8.050157346943388E-01 Z = 1.680388883544525E-02
 VX= 7.612478757901503E-03 VY=-1.086770936795193E-02 VZ=-4.146513332723147E-04
 LT= 9.218879623556346E-03 RG= 1.596199526088703E+00 RR=-1.096381504247393E-03
2454730.500000000 = A.D. 2008-Sep-21 00:00:00.0000 TDB 
 X =-1.297170064491306E+00 Y =-9.106025445299242E-01 Z = 1.260091079538607E-02
 VX= 8.593122633527456E-03 VY=-1.023457257854705E-02 VZ=-4.254674021878787E-04
 LT= 9.153797458802442E-03 RG= 1.584930898578744E+00 RR=-1.156185980687189E-03
2454740.500000000 = A.D. 2008-Oct-01 00:00:00.0000 TDB 
 X =-1.206512958011747E+00 Y =-1.009406520117092E+00 Z = 8.304391545323458E-03
 VX= 9.530376894187070E-03 VY=-9.511256751517675E-03 VZ=-4.333283074196490E-04
 LT= 9.085468609764129E-03 RG= 1.573100125110951E+00 RR=-1.208694307287768E-03
2454750.500000000 = A.D. 2008-Oct-11 00:00:00.0000 TDB 
 X =-1.106735282272459E+00 Y =-1.100530402278928E+00 Z = 3.944816270400468E-03
 VX= 1.041578925956098E-02 VY=-8.698782829974530E-03 VZ=-4.380478578792312E-04
 LT= 9.014334787048869E-03 RG= 1.560783685506203E+00 RR=-1.253200258012924E-03
2454760.500000000 = A.D. 2008-Oct-21 00:00:00.0000 TDB 
 X =-9.983996137688415E-01 Y =-1.183090799040605E+00 Z =-4.454881448031983E-04
 VX= 1.124045557045693E-02 VY=-7.798925345901227E-03 VZ=-4.394444716076860E-04
 LT= 8.940878871013460E-03 RG= 1.548065187906503E+00 RR=-1.288985715379206E-03
2454770.500000000 = A.D. 2008-Oct-31 00:00:00.0000 TDB 
 X =-8.821596686837618E-01 Y =-1.256226404116376E+00 Z =-4.832418909971507E-03
 VX= 1.199506101749162E-02 VY=-6.814350922950374E-03 VZ=-4.373452484390598E-04
 LT= 8.865625341313084E-03 RG= 1.535035443149091E+00 RR=-1.315329929526595E-03
2454780.500000000 = A.D. 2008-Nov-10 00:00:00.0000 TDB 
 X =-7.587640897459950E-01 Y =-1.319107648466057E+00 Z =-9.180206606006871E-03
 VX= 1.266994942574200E-02 VY=-5.748765569263047E-03 VZ=-4.315906851783927E-04
 LT= 8.789140091890831E-03 RG= 1.521792432732877E+00 RR=-1.331521879235305E-03
2454790.500000000 = A.D. 2008-Nov-20 00:00:00.0000 TDB 
 X =-6.290593738109382E-01 Y =-1.370947857289786E+00 Z =-1.345157712530290E-02
 VX= 1.325522642272321E-02 VY=-4.607067578476987E-03 VZ=-4.220403519959027E-04
 LT= 8.712029446907696E-03 RG= 1.508441138431998E+00 RR=-1.336875432772643E-03
2454800.500000000 = A.D. 2008-Nov-30 00:00:00.0000 TDB 
 X =-4.939915744539324E-01 Y =-1.411015931602498E+00 Z =-1.760797567468433E-02
 VX= 1.374090227806169E-02 VY=-3.395498559566240E-03 VZ=-4.085797195367684E-04
 LT= 8.634938181853406E-03 RG= 1.495093199661781E+00 RR=-1.330748562138690E-03
2454810.500000000 = A.D. 2008-Dec-10 00:00:00.0000 TDB 
 X =-3.546063645906464E-01 Y =-1.438650498465916E+00 Z =-2.160986178923970E-02
 VX= 1.411707779452425E-02 VY=-2.121784182079869E-03 VZ=-3.911275399199581E-04
 LT= 8.558546342064035E-03 RG= 1.481866362622141E+00 RR=-1.312566099855262E-03
2454820.500000000 = A.D. 2008-Dec-20 00:00:00.0000 TDB 
 X =-2.120470057639108E-01 Y =-1.453275375765211E+00 Z =-2.541708323331446E-02
 VX= 1.437417714135300E-02 VY=-7.952544654001242E-04 VZ=-3.696440860286968E-04
 LT= 8.483564646556344E-03 RG= 1.468883684496170E+00 RR=-1.281845687635346E-03
2454830.500000000 = A.D. 2008-Dec-30 00:00:00.0000 TDB 
 X =-6.754975188915009E-02 Y =-1.454416077190982E+00 Z =-2.898933478716719E-02
 VX= 1.450322819035447E-02 VY= 5.730706553406142E-04 VZ=-3.441399653130231E-04
 LT= 8.410728285022631E-03 RG= 1.456272459433087E+00 RR=-1.238227256167295E-03
2454840.500000000 = A.D. 2009-Jan-09 00:00:00.0000 TDB 
 X = 7.756377193995884E-02 Y =-1.441716943052061E+00 Z =-3.228670451444278E-02
 VX= 1.449618625044965E-02 VY= 1.970444670877535E-03 VZ=-3.146846867316463E-04
 LT= 8.340788966902919E-03 RG= 1.444162841887762E+00 RR=-1.181504191934212E-03
2454850.500000000 = A.D. 2009-Jan-19 00:00:00.0000 TDB 
 X = 2.218976217124525E-01 Y =-1.414958327007565E+00 Z =-3.527030544954072E-02
 VX= 1.434629464312899E-02 VY= 3.382422382025100E-03 VZ=-2.814149960425851E-04
 LT= 8.274505146172992E-03 RG= 1.432686154095234E+00 RR=-1.111654814130623E-03
2454860.500000000 = A.D. 2009-Jan-29 00:00:00.0000 TDB 
 X = 3.639963210253533E-01 Y =-1.374073110629722E+00 Z =-3.790298489058795E-02
 VX= 1.404846859946696E-02 VY= 4.792968868428379E-03 VZ=-2.445420890794334E-04
 LT= 8.212630435010184E-03 RG= 1.421972879959125E+00 RR=-1.028873265769454E-03
2454870.500000000 = A.D. 2009-Feb-08 00:00:00.0000 TDB 
 X = 5.023635244232829E-01 Y =-1.319161674148288E+00 Z =-4.015009653921705E-02
 VX= 1.359968290068027E-02 VY= 6.184661379905233E-03 VZ=-2.043567474126331E-04
 LT= 8.155900340446939E-03 RG= 1.412150368574397E+00 RR=-9.335965298972617E-04
2454880.500000000 = A.D. 2009-Feb-18 00:00:00.0000 TDB 
 X = 6.354844811685139E-01 Y =-1.250504344493533E+00 Z =-4.198031313949169E-02
 VX= 1.299933969687182E-02 VY= 7.538992492313169E-03 VZ=-1.612321445756852E-04
 LT= 8.105017608325703E-03 RG= 1.403340296611804E+00 RR=-8.265248627327830E-04
2454890.500000000 = A.D. 2009-Feb-28 00:00:00.0000 TDB 
 X = 7.618519524321696E-01 Y =-1.168570294106963E+00 Z =-4.336644957440346E-02
 VX= 1.224958651941536E-02 VY= 8.836776391967666E-03 VZ=-1.156231438990843E-04
 LT= 8.060636622656801E-03 RG= 1.395655967150441E+00 RR=-7.086336740962806E-04
2454900.500000000 = A.D. 2009-Mar-10 00:00:00.0000 TDB 
 X = 8.799949301726682E-01 Y =-1.074021898237166E+00 Z =-4.428625955423885E-02
 VX= 1.135555311938844E-02 VY= 1.005864882356840E-02 VZ=-6.806150548518980E-05
 LT= 8.023347463073819E-03 RG= 1.389199549311714E+00 RR=-5.811733380738304E-04
2454910.500000000 = A.D. 2009-Mar-20 00:00:00.0000 TDB 
 X = 9.885091958087672E-01 Y =-9.677136931585429E-01 Z =-4.472316426673318E-02
 VX= 1.032547790411725E-02 VY= 1.118564257695630E-02 VZ=-1.914707654956919E-05
 LT= 7.993660354748215E-03 RG= 1.384059385845517E+00 RR=-4.456552353287333E-04
